CCSDS_OMM_VERS = 2.0
CREATION_DATE  = 
ORIGINATOR     = 

OBJECT_NAME    = SL-4 R/B
OBJECT_ID      = 2014-021B
CENTER_NAME    = EARTH
REF_FRAME      = TEME
TIME_SYSTEM    = UTC
MEAN_ELEMENT_THEORY = SGP/SGP4

EPOCH          = 2026-01-25T21:17:04.447392
MEAN_MOTION    = 15.37836386
ECCENTRICITY   = .00990987
INCLINATION    = 51.6063
RA_OF_ASC_NODE = 185.8653
ARG_OF_PERICENTER = 306.8520
MEAN_ANOMALY   = 52.3407

EPHEMERIS_TYPE = 0
CLASSIFICATION_TYPE = U
NORAD_CAT_ID   = 39679
ELEMENT_SET_NO = 999
REV_AT_EPOCH   = 64968
BSTAR          = .36441422E-3
MEAN_MOTION_DOT = .15877E-3
MEAN_MOTION_DDOT = 0

CCSDS_OMM_VERS = 2.0
CREATION_DATE  = 
ORIGINATOR     = 

OBJECT_NAME    = ALOS-2
OBJECT_ID      = 2014-029A
CENTER_NAME    = EARTH
REF_FRAME      = TEME
TIME_SYSTEM    = UTC
MEAN_ELEMENT_THEORY = SGP/SGP4

EPOCH          = 2026-01-26T02:38:40.911072
MEAN_MOTION    = 14.79466362
ECCENTRICITY   = .0001423
INCLINATION    = 97.9198
RA_OF_ASC_NODE = 125.3192
ARG_OF_PERICENTER = 106.0571
MEAN_ANOMALY   = 254.0797

EPHEMERIS_TYPE = 0
CLASSIFICATION_TYPE = U
NORAD_CAT_ID   = 39766
ELEMENT_SET_NO = 999
REV_AT_EPOCH   = 63057
BSTAR          = .12225E-3
MEAN_MOTION_DOT = .862E-5
MEAN_MOTION_DDOT = 0

CCSDS_OMM_VERS = 2.0
CREATION_DATE  = 
ORIGINATOR     = 

OBJECT_NAME    = YAOGAN-29
OBJECT_ID      = 2015-069A
CENTER_NAME    = EARTH
REF_FRAME      = TEME
TIME_SYSTEM    = UTC
MEAN_ELEMENT_THEORY = SGP/SGP4

EPOCH          = 2026-01-26T00:23:37.430016
MEAN_MOTION    = 14.82940833
ECCENTRICITY   = .00027177
INCLINATION    = 98.0190
RA_OF_ASC_NODE = 54.3235
ARG_OF_PERICENTER = 108.5065
MEAN_ANOMALY   = 251.6444

EPHEMERIS_TYPE = 0
CLASSIFICATION_TYPE = U
NORAD_CAT_ID   = 41038
ELEMENT_SET_NO = 999
REV_AT_EPOCH   = 54955
BSTAR          = .75081882E-4
MEAN_MOTION_DOT = .555E-5
MEAN_MOTION_DDOT = 0

CCSDS_OMM_VERS = 2.0
CREATION_DATE  = 
ORIGINATOR     = 

OBJECT_NAME    = ASTRO-H (HITOMI)
OBJECT_ID      = 2016-012A
CENTER_NAME    = EARTH
REF_FRAME      = TEME
TIME_SYSTEM    = UTC
MEAN_ELEMENT_THEORY = SGP/SGP4

EPOCH          = 2026-01-25T23:50:23.965152
MEAN_MOTION    = 15.09682793
ECCENTRICITY   = .00099285
INCLINATION    = 30.9994
RA_OF_ASC_NODE = 272.0124
ARG_OF_PERICENTER = 264.1512
MEAN_ANOMALY   = 95.7995

EPHEMERIS_TYPE = 0
CLASSIFICATION_TYPE = U
NORAD_CAT_ID   = 41337
ELEMENT_SET_NO = 999
REV_AT_EPOCH   = 54577
BSTAR          = .2742275E-3
MEAN_MOTION_DOT = .4626E-4
MEAN_MOTION_DDOT = 0

CCSDS_OMM_VERS = 2.0
CREATION_DATE  = 
ORIGINATOR     = 

OBJECT_NAME    = HXMT (HUIYAN)
OBJECT_ID      = 2017-034A
CENTER_NAME    = EARTH
REF_FRAME      = TEME
TIME_SYSTEM    = UTC
MEAN_ELEMENT_THEORY = SGP/SGP4

EPOCH          = 2026-01-25T23:37:53.545728
MEAN_MOTION    = 15.16891880
ECCENTRICITY   = .00327729
INCLINATION    = 43.0135
RA_OF_ASC_NODE = 253.9937
ARG_OF_PERICENTER = 322.4897
MEAN_ANOMALY   = 37.3665

EPHEMERIS_TYPE = 0
CLASSIFICATION_TYPE = U
NORAD_CAT_ID   = 42758
ELEMENT_SET_NO = 999
REV_AT_EPOCH   = 47605
BSTAR          = .40048649E-3
MEAN_MOTION_DOT = .791E-4
MEAN_MOTION_DDOT = 0

CCSDS_OMM_VERS = 2.0
CREATION_DATE  = 
ORIGINATOR     = 

OBJECT_NAME    = CZ-2C R/B
OBJECT_ID      = 2018-054D
CENTER_NAME    = EARTH
REF_FRAME      = TEME
TIME_SYSTEM    = UTC
MEAN_ELEMENT_THEORY = SGP/SGP4

EPOCH          = 2026-01-25T23:07:32.650176
MEAN_MOTION    = 15.87877978
ECCENTRICITY   = .00129689
INCLINATION    = 35.1310
RA_OF_ASC_NODE = 238.3712
ARG_OF_PERICENTER = 247.8566
MEAN_ANOMALY   = 112.0795

EPHEMERIS_TYPE = 0
CLASSIFICATION_TYPE = U
NORAD_CAT_ID   = 43521
ELEMENT_SET_NO = 999
REV_AT_EPOCH   = 42205
BSTAR          = .91989542E-3
MEAN_MOTION_DOT = .268633E-2
MEAN_MOTION_DDOT = 0

CCSDS_OMM_VERS = 2.0
CREATION_DATE  = 
ORIGINATOR     = 

OBJECT_NAME    = SAOCOM 1A
OBJECT_ID      = 2018-076A
CENTER_NAME    = EARTH
REF_FRAME      = TEME
TIME_SYSTEM    = UTC
MEAN_ELEMENT_THEORY = SGP/SGP4

EPOCH          = 2026-01-25T23:00:39.670272
MEAN_MOTION    = 14.82170382
ECCENTRICITY   = .00015328
INCLINATION    = 97.8863
RA_OF_ASC_NODE = 214.7392
ARG_OF_PERICENTER = 83.3809
MEAN_ANOMALY   = 276.7578

EPHEMERIS_TYPE = 0
CLASSIFICATION_TYPE = U
NORAD_CAT_ID   = 43641
ELEMENT_SET_NO = 999
REV_AT_EPOCH   = 39503
BSTAR          = .20429772E-3
MEAN_MOTION_DOT = .1575E-4
MEAN_MOTION_DDOT = 0

CCSDS_OMM_VERS = 2.0
CREATION_DATE  = 
ORIGINATOR     = 

OBJECT_NAME    = H-2A R/B
OBJECT_ID      = 2018-084L
CENTER_NAME    = EARTH
REF_FRAME      = TEME
TIME_SYSTEM    = UTC
MEAN_ELEMENT_THEORY = SGP/SGP4

EPOCH          = 2026-01-25T12:49:27.280128
MEAN_MOTION    = 15.39352001
ECCENTRICITY   = .0026018
INCLINATION    = 98.8767
RA_OF_ASC_NODE = 233.7611
ARG_OF_PERICENTER = 171.6996
MEAN_ANOMALY   = 188.4681

EPHEMERIS_TYPE = 0
CLASSIFICATION_TYPE = U
NORAD_CAT_ID   = 43682
ELEMENT_SET_NO = 999
REV_AT_EPOCH   = 39913
BSTAR          = .76130347E-3
MEAN_MOTION_DOT = .30062E-3
MEAN_MOTION_DDOT = 0

CCSDS_OMM_VERS = 2.0
CREATION_DATE  = 
ORIGINATOR     = 

OBJECT_NAME    = SAOCOM 1B
OBJECT_ID      = 2020-059A
CENTER_NAME    = EARTH
REF_FRAME      = TEME
TIME_SYSTEM    = UTC
MEAN_ELEMENT_THEORY = SGP/SGP4

EPOCH          = 2026-01-25T23:45:38.852064
MEAN_MOTION    = 14.82143184
ECCENTRICITY   = .00013309
INCLINATION    = 97.8858
RA_OF_ASC_NODE = 213.8686
ARG_OF_PERICENTER = 85.3982
MEAN_ANOMALY   = 274.7383

EPHEMERIS_TYPE = 0
CLASSIFICATION_TYPE = U
NORAD_CAT_ID   = 46265
ELEMENT_SET_NO = 999
REV_AT_EPOCH   = 29242
BSTAR          = .94420093E-4
MEAN_MOTION_DOT = .699E-5
MEAN_MOTION_DDOT = 0

CCSDS_OMM_VERS = 2.0
CREATION_DATE  = 
ORIGINATOR     = 

OBJECT_NAME    = CSS (TIANHE)
OBJECT_ID      = 2021-035A
CENTER_NAME    = EARTH
REF_FRAME      = TEME
TIME_SYSTEM    = UTC
MEAN_ELEMENT_THEORY = SGP/SGP4

EPOCH          = 2026-01-25T21:14:40.495488
MEAN_MOTION    = 15.61084306
ECCENTRICITY   = .00098402
INCLINATION    = 41.4668
RA_OF_ASC_NODE = 108.3285
ARG_OF_PERICENTER = 2.1018
MEAN_ANOMALY   = 357.9860

EPHEMERIS_TYPE = 0
CLASSIFICATION_TYPE = U
NORAD_CAT_ID   = 48274
ELEMENT_SET_NO = 999
REV_AT_EPOCH   = 27092
BSTAR          = .33003645E-3
MEAN_MOTION_DOT = .28441E-3
MEAN_MOTION_DDOT = 0

CCSDS_OMM_VERS = 2.0
CREATION_DATE  = 
ORIGINATOR     = 

OBJECT_NAME    = COSMOS 2550
OBJECT_ID      = 2021-056A
CENTER_NAME    = EARTH
REF_FRAME      = TEME
TIME_SYSTEM    = UTC
MEAN_ELEMENT_THEORY = SGP/SGP4

EPOCH          = 2026-01-25T22:28:58.115136
MEAN_MOTION    = 15.33840663
ECCENTRICITY   = .00083286
INCLINATION    = 67.1420
RA_OF_ASC_NODE = 170.2493
ARG_OF_PERICENTER = 270.2489
MEAN_ANOMALY   = 89.7711

EPHEMERIS_TYPE = 0
CLASSIFICATION_TYPE = U
NORAD_CAT_ID   = 48865
ELEMENT_SET_NO = 999
REV_AT_EPOCH   = 25690
BSTAR          = .327251E-6
MEAN_MOTION_DOT = -.181E-5
MEAN_MOTION_DDOT = 0

CCSDS_OMM_VERS = 2.0
CREATION_DATE  = 
ORIGINATOR     = 

OBJECT_NAME    = CZ-2C R/B
OBJECT_ID      = 2022-058K
CENTER_NAME    = EARTH
REF_FRAME      = TEME
TIME_SYSTEM    = UTC
MEAN_ELEMENT_THEORY = SGP/SGP4

EPOCH          = 2026-01-25T20:15:52.809408
MEAN_MOTION    = 15.51238256
ECCENTRICITY   = .00425614
INCLINATION    = 50.1882
RA_OF_ASC_NODE = 178.1835
ARG_OF_PERICENTER = 19.9379
MEAN_ANOMALY   = 340.3242

EPHEMERIS_TYPE = 0
CLASSIFICATION_TYPE = U
NORAD_CAT_ID   = 52794
ELEMENT_SET_NO = 999
REV_AT_EPOCH   = 20347
BSTAR          = .66516753E-3
MEAN_MOTION_DOT = .40973E-3
MEAN_MOTION_DDOT = 0

