SL-4 R/B                
1 39679U 14021B   26025.88685703  .00015877  00000+0  36441-3 0  9990
2 39679  51.6063 185.8653 0099098 306.8520  52.3407 15.37836386649686
ALOS-2                  
1 39766U 14029A   26026.11019573  .00000862  00000+0  12225-3 0  9990
2 39766  97.9198 125.3192 0001423 106.0571 254.0797 14.79466362630572
YAOGAN-29               
1 41038U 15069A   26026.01640544  .00000555  00000+0  75082-4 0  9997
2 41038  98.0190  54.3235 0002717 108.5065 251.6444 14.82940833549555
ASTRO-H (HITOMI)        
1 41337U 16012A   26025.99333293  .00004626  00000+0  27423-3 0  9992
2 41337  30.9994 272.0124 0009928 264.1512  95.7995 15.09682793545773
HXMT (HUIYAN)           
1 42758U 17034A   26025.98464752  .00007910  00000+0  40049-3 0  9997
2 42758  43.0135 253.9937 0032772 322.4897  37.3665 15.16891880476057
CZ-2C R/B               
1 43521U 18054D   26025.96357234  .00268633  00000+0  91990-3 0  9995
2 43521  35.1310 238.3712 0012968 247.8566 112.0795 15.87877978422055
SAOCOM 1A               
1 43641U 18076A   26025.95879248  .00001575  00000+0  20430-3 0  9996
2 43641  97.8863 214.7392 0001532  83.3809 276.7578 14.82170382395039
H-2A R/B                
1 43682U 18084L   26025.53434352  .00030062  00000+0  76130-3 0  9998
2 43682  98.8767 233.7611 0026018 171.6996 188.4681 15.39352001399139
SAOCOM 1B               
1 46265U 20059A   26025.99003301  .00000699  00000+0  94420-4 0  9995
2 46265  97.8858 213.8686 0001330  85.3982 274.7383 14.82143184292425
CSS (TIANHE)            
1 48274U 21035A   26025.88519092  .00028441  00000+0  33004-3 0  9994
2 48274  41.4668 108.3285 0009840   2.1018 357.9860 15.61084306270928
COSMOS 2550             
1 48865U 21056A   26025.93678374 -.00000181  00000+0  32725-6 0  9992
2 48865  67.1420 170.2493 0008328 270.2489  89.7711 15.33840663256906
CZ-2C R/B               
1 52794U 22058K   26025.84436122  .00040973  00000+0  66517-3 0  9999
2 52794  50.1882 178.1835 0042561  19.9379 340.3242 15.51238256203474
